OBJECT_NAME,OBJECT_ID,EPOCH,MEAN_MOTION,ECCENTRICITY,INCLINATION,RA_OF_ASC_NODE,ARG_OF_PERICENTER,MEAN_ANOMALY,EPHEMERIS_TYPE,CLASSIFICATION_TYPE,NORAD_CAT_ID,ELEMENT_SET_NO,REV_AT_EPOCH,BSTAR,MEAN_MOTION_DOT,MEAN_MOTION_DDOT
HAWK-5A,2022-057AB,2026-06-19T22:42:31.513248,15.51475433,.00054114,97.6614,329.9717,70.5262,289.6573,0,U,52757,999,22677,.27356803E-3,.16069E-3,0
HAWK-6B,2023-011A,2026-06-19T22:29:39.956064,15.22954950,.00019039,40.4999,336.0312,20.0621,340.0263,0,U,55324,999,18826,.17373743E-3,.3972E-4,0
HAWK-6C,2023-011C,2026-06-19T20:54:17.498304,15.22950112,.00027671,40.4987,333.2558,8.8045,351.2812,0,U,55326,999,18826,.16062218E-3,.3657E-4,0
HAWK-6A,2023-011D,2026-06-19T20:54:21.936672,15.22952483,.00024698,40.5001,334.8809,2.7787,357.3036,0,U,55327,999,18826,.17201793E-3,.3931E-4,0
HAWK-7A,2023-054P,2026-06-20T06:07:16.332960,15.27387139,.00041189,97.2695,58.5139,50.4513,309.7090,0,U,56191,999,17749,.17122155E-3,.4519E-4,0
HAWK-7B,2023-054R,2026-06-20T06:07:09.426144,15.27385586,.00035911,97.2721,56.7790,63.2325,296.9281,0,U,56193,999,17749,.17451691E-3,.4607E-4,0
HAWK-7C,2023-054Y,2026-06-20T06:06:59.584320,15.27386540,.0003512,97.2698,57.5466,54.4599,305.6968,0,U,56200,999,17749,.16962716E-3,.4476E-4,0
