HAWK-5A                 
1 52757U 22057AB  26170.94619807  .00016069  00000+0  27357-3 0  9990
2 52757  97.6614 329.9717 0005411  70.5262 289.6573 15.51475433226774
HAWK-6B                 
1 55324U 23011A   26170.93726801  .00003972  00000+0  17374-3 0  9993
2 55324  40.4999 336.0312 0001903  20.0621 340.0263 15.22954950188263
HAWK-6C                 
1 55326U 23011C   26170.87103586  .00003657  00000+0  16062-3 0  9990
2 55326  40.4987 333.2558 0002767   8.8045 351.2812 15.22950112188266
HAWK-6A                 
1 55327U 23011D   26170.87108723  .00003931  00000+0  17202-3 0  9991
2 55327  40.5001 334.8809 0002469   2.7787 357.3036 15.22952483188264
HAWK-7A                 
1 56191U 23054P   26171.25505015  .00004519  00000+0  17122-3 0  9990
2 56191  97.2695  58.5139 0004118  50.4513 309.7090 15.27387139177497
HAWK-7B                 
1 56193U 23054R   26171.25497021  .00004607  00000+0  17452-3 0  9993
2 56193  97.2721  56.7790 0003591  63.2325 296.9281 15.27385586177492
HAWK-7C                 
1 56200U 23054Y   26171.25485630  .00004476  00000+0  16963-3 0  9995
2 56200  97.2698  57.5466 0003512  54.4599 305.6968 15.27386540177492
